STARS-X                 
1 69502U 26132A   26193.05274485  .00001236  00000+0  10643-3 0  9990
2 69502  97.6886 256.3979 0014256 175.9182 184.2160 14.99104778  4501
PETREL                  
1 69503U 26132B   26193.05103872  .00001007  00000+0  87421-4 0  9997
2 69503  97.6914 256.4116 0014144 177.7570 182.3719 14.99182309  4500
BRO-22                  
1 69504U 26132C   26192.97189104  .00000633  00000+0  55871-4 0  9998
2 69504  97.6832 256.3344 0016210 192.4467 167.6358 14.99799758  4492
HORN-L                  
1 69505U 26132D   26191.59874568  .00002811  00000+0  16993-3 0  9992
2 69505  97.6828 255.1999 0028853 224.9163 134.9732 15.11180435  4305
VERTECS                 
1 69506U 26132E   26193.14900222  .00001058  00000+0  87445-4 0  9996
2 69506  97.6825 256.5726 0015471 217.0754 142.9402 15.00985096  4517
HORN-R                  
1 69507U 26132F   26193.03617388  .00000519  00000+0  40121-4 0  9994
2 69507  97.6866 256.5489 0018099 216.9812 143.0168 15.05776636  4504
STARLINK-37536          
1 69508U 26133A   26192.44987641  .00030706  00000+0  55767-3 0  9994
2 69508  53.1576 202.7623 0000862  72.4560 287.6543 15.49325262  4579
STARLINK-37341          
1 69509U 26133B   26192.45172674  .00045355  00000+0  81801-3 0  9992
2 69509  53.1590 202.7751 0000993  56.6800 303.4304 15.49336557  4586
STARLINK-36536          
1 69510U 26133C   26193.16668980 -.00013906  00000+0 -38842-3 0  9999
2 69510  53.1590 198.7723 0001298  76.7348 239.7269 15.35404485  5932
STARLINK-37420          
1 69511U 26133D   26193.16668980 -.00042914  00000+0 -12997-2 0  9993
2 69511  53.1592 198.5121 0001385 100.8895 343.8974 15.33578395  5882
STARLINK-37511          
1 69512U 26133E   26193.16668980 -.00016979  00000+0 -50603-3 0  9993
2 69512  53.1595 198.5729 0001176  97.0202 317.0866 15.33551556  5880
STARLINK-37552          
1 69513U 26133F   26192.06410775  .00029436  00000+0  53501-3 0  9999
2 69513  53.1587 204.6185 0001857  69.2199 290.9009 15.49325269  5783
STARLINK-37607          
1 69514U 26133G   26193.16668980 -.00016407  00000+0 -46045-3 0  9996
2 69514  53.1595 198.6642 0001540 113.5923 254.0512 15.35399913  5883
STARLINK-37232          
1 69515U 26133H   26193.00697212  .00029468  00000+0  53581-3 0  9992
2 69515  53.1450 199.8209 0003910  95.7649 264.3806 15.49307908  4668
STARLINK-37323          
1 69516U 26133J   26193.16668980 -.00014297  00000+0 -42457-3 0  9996
2 69516  53.1596 198.3915 0001862 116.1238  26.2998 15.33519605  5888
STARLINK-37357          
1 69517U 26133K   26193.03101156  .00042768  00000+0  77205-3 0  9991
2 69517  53.1600 199.9841 0001316  90.7107 269.4053 15.49337398  5928
STARLINK-37408          
1 69518U 26133L   26192.51416289 -.00353335  00000+0 -67416-2 0  9999
2 69518  53.1597 201.7144 0000903 166.7623 193.3410 15.48863350  5866
STARLINK-37570          
1 69519U 26133M   26192.36453360  .00045435  00000+0  81939-3 0  9998
2 69519  53.1605 202.9265 0000754  48.0204 312.0869 15.49338344  5831
STARLINK-37510          
1 69520U 26133N   26193.00496396  .00030017  00000+0  54510-3 0  9993
2 69520  53.1543 199.8108 0002130  91.9583 268.1670 15.49338903  5934
STARLINK-37586          
1 69521U 26133P   26193.16668980 -.00013134  00000+0 -38888-3 0  9994
2 69521  53.1598 198.3366 0001406 106.2027  60.0558 15.33533994  5881
STARLINK-37379          
1 69522U 26133Q   26193.04223228  .00030356  00000+0  55112-3 0  9996
2 69522  53.1549 199.3209 0002703 108.4148 251.7155 15.49338914  5945
STARLINK-37429          
1 69523U 26133R   26191.53145370  .00056376  00000+0  10132-2 0  9992
2 69523  53.1595 206.9677 0001182  74.4967 285.6173 15.49342375  5708
STARLINK-37352          
1 69524U 26133S   26192.97633904  .00036747  00000+0  66492-3 0  9998
2 69524  53.1546 199.6250 0002828  69.0086 291.1225 15.49338075  5937
STARLINK-37490          
1 69525U 26133T   26193.16668980 -.02867207  00000+0 -86420-1 0  9991
2 69525  53.1588 198.3355 0002018  63.0436 103.1009 15.37591669  5939
STARLINK-37438          
1 69526U 26133U   26192.99037005  .00037158  00000+0  67234-3 0  9994
2 69526  53.1590 199.7119 0000938 102.1197 257.9917 15.49335936  5936
STARLINK-37484          
1 69527U 26133V   26193.16668980 -.00014929  00000+0 -41788-3 0  9996
2 69527  53.1595 198.3240 0001177  55.2488 116.3106 15.35403142  5937
STARLINK-37523          
1 69528U 26133W   26193.03807071  .00037048  00000+0  66965-3 0  9998
2 69528  53.1544 199.2900 0002077 101.6729 258.4513 15.49366685  5945
STARLINK-37369          
1 69529U 26133X   26192.00242838  .00046150  00000+0  83235-3 0  9992
2 69529  53.1589 204.2045 0001077  86.3007 273.8125 15.49328692  5787
STARLINK-37670          
1 69530U 26133Y   26193.04953446  .00035781  00000+0  64784-3 0  9999
2 69530  53.1602 199.3671 0001298  99.7548 260.3608 15.49335434  5944
STARLINK-37897          
1 69531U 26133Z   26193.16668980 -.02985588  00000+0 -83781-1 0  9998
2 69531  53.1590 198.2090 0001159 107.5305 118.7941 15.39925529  5898
